STARLINK-5735           
1 55603U 23020AL  25211.10930741  .00000733  00000+0  69350-4 0  9991
2 55603  43.0027 121.4329 0000903 267.4637  92.6102 15.02538979135587
STARLINK-5748           
1 55604U 23020AM  25211.07848758 -.00003506  00000+0 -24459-3 0  9997
2 55604  43.0035 108.1941 0000922 284.6509  75.4231 15.02541341135735
STARLINK-5725           
1 55605U 23020AN  25211.43725231  .00001275  00000+0  10939-3 0  9995
2 55605  43.0032 119.5926 0001123 269.6332  90.4381 15.02542190135638
STARLINK-5700           
1 55607U 23020AQ  25211.03174625  .00000979  00000+0  87534-4 0  9994
2 55607  43.0047 121.7097 0001146 268.8580  91.2131 15.02539430135579
STARLINK-5726           
1 55608U 23020AR  25211.42837630  .00000921  00000+0  83258-4 0  9996
2 55608  43.0040 119.5272 0001089 267.6020  92.4698 15.02539674135633
STARLINK-5719           
1 55609U 23020AS  25211.43392659  .00000845  00000+0  77624-4 0  9990
2 55609  43.0032 119.5650 0001096 270.1976  89.8741 15.02535713135631
STARLINK-5722           
1 55610U 23020AT  25211.15469794  .00000596  00000+0  59195-4 0  9992
2 55610  43.0033 120.9112 0001028 260.6684  99.4042 15.02536834135599
STARLINK-5730           
1 55611U 23020AU  25211.08600500  .00001700  00000+0  14088-3 0  9996
2 55611  43.0047 121.2602 0001252 266.7076  93.3624 15.02543307135585
STARLINK-5734           
1 55612U 23020AV  25210.48658803  .00000066  00000+0  19962-4 0  9990
2 55612  43.0036 124.5015 0001103 262.6719  97.3998 15.02539706135498
STARLINK-5715           
1 55613U 23020AW  25210.49435867  .00000106  00000+0  22934-4 0  9993
2 55613  43.0043 124.5602 0001122 262.3691  97.7024 15.02537559135494
STARLINK-5714           
1 55614U 23020AX  25211.55470022 -.00072367  00000+0 -54270-2 0  9990
2 55614  43.0002 105.7073 0002780 260.4993  99.5535 15.02326481135800
STARLINK-5712           
1 55615U 23020AY  25211.14803752  .00000653  00000+0  63429-4 0  9991
2 55615  43.0034 120.8652 0001180 263.5105  96.5603 15.02534636135591
STARLINK-5710           
1 55616U 23020AZ  25210.47438265  .00000366  00000+0  42121-4 0  9997
2 55616  43.0034 124.4100 0000303 277.7328  82.3480 15.02538287135491
STARLINK-5721           
1 55617U 23020BA  25211.47710061  .00000466  00000+0  49531-4 0  9999
2 55617  43.0039 119.0322 0000964 270.5648  89.5084 15.02535724135641
STARLINK-5717           
1 55618U 23020BB  25210.47326965  .00000753  00000+0  70783-4 0  9997
2 55618  43.0038 124.4011 0001350 266.8217  93.2471 15.02536190135499
STARLINK-5720           
1 55619U 23020BC  25211.46711010  .00000074  00000+0  20535-4 0  9993
2 55619  43.0031 118.9574 0001138 263.0799  96.9914 15.02536262135642
STARLINK-5718           
1 55620U 23020BD  25210.46660972  .00000467  00000+0  49647-4 0  9995
2 55620  43.0031 124.3487 0001223 265.4188  94.6514 15.02536210135498
