[{"OBJECT_NAME":"STARLINK-5735","OBJECT_ID":"2023-020AL","EPOCH":"2025-07-30T02:37:24.160224","MEAN_MOTION":15.02538979,"ECCENTRICITY":9.03e-5,"INCLINATION":43.0027,"RA_OF_ASC_NODE":121.4329,"ARG_OF_PERICENTER":267.4637,"MEAN_ANOMALY":92.6102,"EPHEMERIS_TYPE":0,"CLASSIFICATION_TYPE":"U","NORAD_CAT_ID":55603,"ELEMENT_SET_NO":999,"REV_AT_EPOCH":13558,"BSTAR":6.935e-5,"MEAN_MOTION_DOT":7.33e-6,"MEAN_MOTION_DDOT":0},{"OBJECT_NAME":"STARLINK-5748","OBJECT_ID":"2023-020AM","EPOCH":"2025-07-30T01:53:01.326912","MEAN_MOTION":15.02541341,"ECCENTRICITY":9.22e-5,"INCLINATION":43.0035,"RA_OF_ASC_NODE":108.1941,"ARG_OF_PERICENTER":284.6509,"MEAN_ANOMALY":75.4231,"EPHEMERIS_TYPE":0,"CLASSIFICATION_TYPE":"U","NORAD_CAT_ID":55604,"ELEMENT_SET_NO":999,"REV_AT_EPOCH":13573,"BSTAR":-0.00024459,"MEAN_MOTION_DOT":-3.506e-5,"MEAN_MOTION_DDOT":0},{"OBJECT_NAME":"STARLINK-5725","OBJECT_ID":"2023-020AN","EPOCH":"2025-07-30T10:29:38.599584","MEAN_MOTION":15.0254219,"ECCENTRICITY":0.0001123,"INCLINATION":43.0032,"RA_OF_ASC_NODE":119.5926,"ARG_OF_PERICENTER":269.6332,"MEAN_ANOMALY":90.4381,"EPHEMERIS_TYPE":0,"CLASSIFICATION_TYPE":"U","NORAD_CAT_ID":55605,"ELEMENT_SET_NO":999,"REV_AT_EPOCH":13563,"BSTAR":0.00010939,"MEAN_MOTION_DOT":1.275e-5,"MEAN_MOTION_DDOT":0},{"OBJECT_NAME":"STARLINK-5700","OBJECT_ID":"2023-020AQ","EPOCH":"2025-07-30T00:45:42.876000","MEAN_MOTION":15.0253943,"ECCENTRICITY":0.0001146,"INCLINATION":43.0047,"RA_OF_ASC_NODE":121.7097,"ARG_OF_PERICENTER":268.858,"MEAN_ANOMALY":91.2131,"EPHEMERIS_TYPE":0,"CLASSIFICATION_TYPE":"U","NORAD_CAT_ID":55607,"ELEMENT_SET_NO":999,"REV_AT_EPOCH":13557,"BSTAR":8.7534e-5,"MEAN_MOTION_DOT":9.79e-6,"MEAN_MOTION_DDOT":0},{"OBJECT_NAME":"STARLINK-5726","OBJECT_ID":"2023-020AR","EPOCH":"2025-07-30T10:16:51.712320","MEAN_MOTION":15.02539674,"ECCENTRICITY":0.0001089,"INCLINATION":43.004,"RA_OF_ASC_NODE":119.5272,"ARG_OF_PERICENTER":267.602,"MEAN_ANOMALY":92.4698,"EPHEMERIS_TYPE":0,"CLASSIFICATION_TYPE":"U","NORAD_CAT_ID":55608,"ELEMENT_SET_NO":999,"REV_AT_EPOCH":13563,"BSTAR":8.3258e-5,"MEAN_MOTION_DOT":9.21e-6,"MEAN_MOTION_DDOT":0},{"OBJECT_NAME":"STARLINK-5719","OBJECT_ID":"2023-020AS","EPOCH":"2025-07-30T10:24:51.257376","MEAN_MOTION":15.02535713,"ECCENTRICITY":0.0001096,"INCLINATION":43.0032,"RA_OF_ASC_NODE":119.565,"ARG_OF_PERICENTER":270.1976,"MEAN_ANOMALY":89.8741,"EPHEMERIS_TYPE":0,"CLASSIFICATION_TYPE":"U","NORAD_CAT_ID":55609,"ELEMENT_SET_NO":999,"REV_AT_EPOCH":13563,"BSTAR":7.7624e-5,"MEAN_MOTION_DOT":8.45e-6,"MEAN_MOTION_DDOT":0},{"OBJECT_NAME":"STARLINK-5722","OBJECT_ID":"2023-020AT","EPOCH":"2025-07-30T03:42:45.902016","MEAN_MOTION":15.02536834,"ECCENTRICITY":0.0001028,"INCLINATION":43.0033,"RA_OF_ASC_NODE":120.9112,"ARG_OF_PERICENTER":260.6684,"MEAN_ANOMALY":99.4042,"EPHEMERIS_TYPE":0,"CLASSIFICATION_TYPE":"U","NORAD_CAT_ID":55610,"ELEMENT_SET_NO":999,"REV_AT_EPOCH":13559,"BSTAR":5.9195e-5,"MEAN_MOTION_DOT":5.96e-6,"MEAN_MOTION_DDOT":0},{"OBJECT_NAME":"STARLINK-5730","OBJECT_ID":"2023-020AU","EPOCH":"2025-07-30T02:03:50.832000","MEAN_MOTION":15.02543307,"ECCENTRICITY":0.0001252,"INCLINATION":43.0047,"RA_OF_ASC_NODE":121.2602,"ARG_OF_PERICENTER":266.7076,"MEAN_ANOMALY":93.3624,"EPHEMERIS_TYPE":0,"CLASSIFICATION_TYPE":"U","NORAD_CAT_ID":55611,"ELEMENT_SET_NO":999,"REV_AT_EPOCH":13558,"BSTAR":0.00014088,"MEAN_MOTION_DOT":1.7e-5,"MEAN_MOTION_DDOT":0},{"OBJECT_NAME":"STARLINK-5734","OBJECT_ID":"2023-020AV","EPOCH":"2025-07-29T11:40:41.205792","MEAN_MOTION":15.02539706,"ECCENTRICITY":0.0001103,"INCLINATION":43.0036,"RA_OF_ASC_NODE":124.5015,"ARG_OF_PERICENTER":262.6719,"MEAN_ANOMALY":97.3998,"EPHEMERIS_TYPE":0,"CLASSIFICATION_TYPE":"U","NORAD_CAT_ID":55612,"ELEMENT_SET_NO":999,"REV_AT_EPOCH":13549,"BSTAR":1.9962e-5,"MEAN_MOTION_DOT":6.6e-7,"MEAN_MOTION_DDOT":0},{"OBJECT_NAME":"STARLINK-5715","OBJECT_ID":"2023-020AW","EPOCH":"2025-07-29T11:51:52.589088","MEAN_MOTION":15.02537559,"ECCENTRICITY":0.0001122,"INCLINATION":43.0043,"RA_OF_ASC_NODE":124.5602,"ARG_OF_PERICENTER":262.3691,"MEAN_ANOMALY":97.7024,"EPHEMERIS_TYPE":0,"CLASSIFICATION_TYPE":"U","NORAD_CAT_ID":55613,"ELEMENT_SET_NO":999,"REV_AT_EPOCH":13549,"BSTAR":2.2934e-5,"MEAN_MOTION_DOT":1.06e-6,"MEAN_MOTION_DDOT":0},{"OBJECT_NAME":"STARLINK-5714","OBJECT_ID":"2023-020AX","EPOCH":"2025-07-30T13:18:46.099008","MEAN_MOTION":15.02326481,"ECCENTRICITY":0.000278,"INCLINATION":43.0002,"RA_OF_ASC_NODE":105.7073,"ARG_OF_PERICENTER":260.4993,"MEAN_ANOMALY":99.5535,"EPHEMERIS_TYPE":0,"CLASSIFICATION_TYPE":"U","NORAD_CAT_ID":55614,"ELEMENT_SET_NO":999,"REV_AT_EPOCH":13580,"BSTAR":-0.005427,"MEAN_MOTION_DOT":-0.00072367,"MEAN_MOTION_DDOT":0},{"OBJECT_NAME":"STARLINK-5712","OBJECT_ID":"2023-020AY","EPOCH":"2025-07-30T03:33:10.441728","MEAN_MOTION":15.02534636,"ECCENTRICITY":0.000118,"INCLINATION":43.0034,"RA_OF_ASC_NODE":120.8652,"ARG_OF_PERICENTER":263.5105,"MEAN_ANOMALY":96.5603,"EPHEMERIS_TYPE":0,"CLASSIFICATION_TYPE":"U","NORAD_CAT_ID":55615,"ELEMENT_SET_NO":999,"REV_AT_EPOCH":13559,"BSTAR":6.3429e-5,"MEAN_MOTION_DOT":6.53e-6,"MEAN_MOTION_DDOT":0},{"OBJECT_NAME":"STARLINK-5710","OBJECT_ID":"2023-020AZ","EPOCH":"2025-07-29T11:23:06.660960","MEAN_MOTION":15.02538287,"ECCENTRICITY":3.03e-5,"INCLINATION":43.0034,"RA_OF_ASC_NODE":124.41,"ARG_OF_PERICENTER":277.7328,"MEAN_ANOMALY":82.348,"EPHEMERIS_TYPE":0,"CLASSIFICATION_TYPE":"U","NORAD_CAT_ID":55616,"ELEMENT_SET_NO":999,"REV_AT_EPOCH":13549,"BSTAR":4.2121e-5,"MEAN_MOTION_DOT":3.66e-6,"MEAN_MOTION_DDOT":0},{"OBJECT_NAME":"STARLINK-5721","OBJECT_ID":"2023-020BA","EPOCH":"2025-07-30T11:27:01.492704","MEAN_MOTION":15.02535724,"ECCENTRICITY":9.64e-5,"INCLINATION":43.0039,"RA_OF_ASC_NODE":119.0322,"ARG_OF_PERICENTER":270.5648,"MEAN_ANOMALY":89.5084,"EPHEMERIS_TYPE":0,"CLASSIFICATION_TYPE":"U","NORAD_CAT_ID":55617,"ELEMENT_SET_NO":999,"REV_AT_EPOCH":13564,"BSTAR":4.9531e-5,"MEAN_MOTION_DOT":4.66e-6,"MEAN_MOTION_DDOT":0},{"OBJECT_NAME":"STARLINK-5717","OBJECT_ID":"2023-020BB","EPOCH":"2025-07-29T11:21:30.497760","MEAN_MOTION":15.0253619,"ECCENTRICITY":0.000135,"INCLINATION":43.0038,"RA_OF_ASC_NODE":124.4011,"ARG_OF_PERICENTER":266.8217,"MEAN_ANOMALY":93.2471,"EPHEMERIS_TYPE":0,"CLASSIFICATION_TYPE":"U","NORAD_CAT_ID":55618,"ELEMENT_SET_NO":999,"REV_AT_EPOCH":13549,"BSTAR":7.0783e-5,"MEAN_MOTION_DOT":7.53e-6,"MEAN_MOTION_DDOT":0},{"OBJECT_NAME":"STARLINK-5720","OBJECT_ID":"2023-020BC","EPOCH":"2025-07-30T11:12:38.312640","MEAN_MOTION":15.02536262,"ECCENTRICITY":0.0001138,"INCLINATION":43.0031,"RA_OF_ASC_NODE":118.9574,"ARG_OF_PERICENTER":263.0799,"MEAN_ANOMALY":96.9914,"EPHEMERIS_TYPE":0,"CLASSIFICATION_TYPE":"U","NORAD_CAT_ID":55619,"ELEMENT_SET_NO":999,"REV_AT_EPOCH":13564,"BSTAR":2.0535e-5,"MEAN_MOTION_DOT":7.4e-7,"MEAN_MOTION_DDOT":0},{"OBJECT_NAME":"STARLINK-5718","OBJECT_ID":"2023-020BD","EPOCH":"2025-07-29T11:11:55.079808","MEAN_MOTION":15.0253621,"ECCENTRICITY":0.0001223,"INCLINATION":43.0031,"RA_OF_ASC_NODE":124.3487,"ARG_OF_PERICENTER":265.4188,"MEAN_ANOMALY":94.6514,"EPHEMERIS_TYPE":0,"CLASSIFICATION_TYPE":"U","NORAD_CAT_ID":55620,"ELEMENT_SET_NO":999,"REV_AT_EPOCH":13549,"BSTAR":4.9647e-5,"MEAN_MOTION_DOT":4.67e-6,"MEAN_MOTION_DDOT":0}]
